{
    "links": {
        "self": "http://www.neowsapp.com/rest/v1/neo/3547226?api_key=iIulBulltgU6a56xZRHN4H3l9WmuAYTsLGpBGhQ2"
    },
    "id": "3547226",
    "neo_reference_id": "3547226",
    "name": "(2010 SD12)",
    "designation": "2010 SD12",
    "nasa_jpl_url": "http://ssd.jpl.nasa.gov/sbdb.cgi?sstr=3547226",
    "absolute_magnitude_h": 23.8,
    "estimated_diameter": {
        "kilometers": {
            "estimated_diameter_min": 0.046190746,
            "estimated_diameter_max": 0.1032856481
        },
        "meters": {
            "estimated_diameter_min": 46.1907460282,
            "estimated_diameter_max": 103.2856480504
        },
        "miles": {
            "estimated_diameter_min": 0.0287015901,
            "estimated_diameter_max": 0.0641787064
        },
        "feet": {
            "estimated_diameter_min": 151.544447199,
            "estimated_diameter_max": 338.8636855496
        }
    },
    "is_potentially_hazardous_asteroid": false,
    "close_approach_data": [
        {
            "close_approach_date": "2010-09-27",
            "close_approach_date_full": "2010-Sep-27 04:41",
            "epoch_date_close_approach": 1285562460000,
            "relative_velocity": {
                "kilometers_per_second": "13.6616930402",
                "kilometers_per_hour": "49182.0949447812",
                "miles_per_hour": "30559.8411616614"
            },
            "miss_distance": {
                "astronomical": "0.0807296012",
                "lunar": "31.4038148668",
                "kilometers": "12076976.385469444",
                "miles": "7504285.1476045672"
            },
            "orbiting_body": "Earth"
        }
    ],
    "orbital_data": {
        "orbit_id": "6",
        "orbit_determination_date": "2017-04-06 08:56:33",
        "first_observation_date": "2010-09-18",
        "last_observation_date": "2010-09-21",
        "data_arc_in_days": 3,
        "observations_used": 14,
        "orbit_uncertainty": "9",
        "minimum_orbit_intersection": ".0756082",
        "jupiter_tisserand_invariant": "3.871",
        "epoch_osculation": "2455458.5",
        "eccentricity": ".4072405474124216",
        "semi_major_axis": "1.803392378844506",
        "inclination": "23.58625246073892",
        "ascending_node_longitude": "181.186414292656",
        "orbital_period": "884.5731888254055",
        "perihelion_distance": "1.06897787928448",
        "perihelion_argument": "194.9495265715655",
        "aphelion_distance": "2.537806878404532",
        "perihelion_time": "2455479.715534490814",
        "mean_anomaly": "351.3657880284222",
        "mean_motion": ".4069759343237971",
        "equinox": "J2000",
        "orbit_class": {
            "orbit_class_type": "AMO",
            "orbit_class_description": "Near-Earth asteroid orbits similar to that of 1221 Amor",
            "orbit_class_range": "1.017 AU < q (perihelion) < 1.3 AU"
        }
    },
    "is_sentry_object": false
}